{
  "norad_id": 56098,
  "name": "STARLINK-6088",
  "history": [
    {
      "epoch": "2026-03-28T20:00:01.999872Z",
      "apogee_km": 486.75002845171457,
      "perigee_km": 485.1858362197336,
      "latitude_deg": 39.065211048565686,
      "longitude_deg": -13.392304101515222,
      "height_km": 488.7763691132683,
      "semi_major_axis_km": 6864.104932335724,
      "eccentricity": 0.00011394,
      "inclination_deg": 43.0007,
      "raan_deg": 52.9149,
      "arg_perigee_deg": 293.7005,
      "mean_anomaly_deg": 133.3807,
      "mean_motion_rev_day": 15.2660574
    },
    {
      "epoch": "2026-03-29T04:00:01.999584Z",
      "apogee_km": 486.2651172616188,
      "perigee_km": 485.16141013921515,
      "latitude_deg": 42.14405784218099,
      "longitude_deg": -90.36507405030643,
      "height_km": 489.1946059147384,
      "semi_major_axis_km": 6863.850263700417,
      "eccentricity": 8.04e-05,
      "inclination_deg": 43.0002,
      "raan_deg": 51.0367,
      "arg_perigee_deg": 281.9825,
      "mean_anomaly_deg": 179.2314,
      "mean_motion_rev_day": 15.26690703
    },
    {
      "epoch": "2026-03-30T04:00:01.999584Z",
      "apogee_km": 486.4037553184644,
      "perigee_km": 484.80724881248534,
      "latitude_deg": -16.173003836936203,
      "longitude_deg": -4.156609540511754,
      "height_km": 488.78681447906285,
      "semi_major_axis_km": 6863.742502065475,
      "eccentricity": 0.0001163,
      "inclination_deg": 43.0008,
      "raan_deg": 45.3983,
      "arg_perigee_deg": 289.1057,
      "mean_anomaly_deg": 274.7949,
      "mean_motion_rev_day": 15.26726657
    },
    {
      "epoch": "2026-03-30T06:00:02.000160Z",
      "apogee_km": 486.39039147904805,
      "perigee_km": 484.8932640411367,
      "latitude_deg": -35.30551426663299,
      "longitude_deg": 78.23091573797026,
      "height_km": 495.02962536291716,
      "semi_major_axis_km": 6863.778827760092,
      "eccentricity": 0.00010906,
      "inclination_deg": 43.001,
      "raan_deg": 44.9282,
      "arg_perigee_deg": 292.1395,
      "mean_anomaly_deg": 10.3205,
      "mean_motion_rev_day": 15.26714537
    },
    {
      "epoch": "2026-03-30T14:00:03.000384Z",
      "apogee_km": 486.23288898348255,
      "perigee_km": 484.83654360951914,
      "latitude_deg": -15.74722814668288,
      "longitude_deg": -12.440795608305537,
      "height_km": 488.3081817885734,
      "semi_major_axis_km": 6863.671716296501,
      "eccentricity": 0.00010172,
      "inclination_deg": 43.0011,
      "raan_deg": 43.0445,
      "arg_perigee_deg": 276.8815,
      "mean_anomaly_deg": 59.8739,
      "mean_motion_rev_day": 15.26750275
    },
    {
      "epoch": "2026-03-30T22:00:00.999936Z",
      "apogee_km": 486.15245422250246,
      "perigee_km": 484.9816435858411,
      "latitude_deg": 7.383305774509302,
      "longitude_deg": -109.19733813289257,
      "height_km": 484.7773827350438,
      "semi_major_axis_km": 6863.704048904172,
      "eccentricity": 8.529e-05,
      "inclination_deg": 43.0011,
      "raan_deg": 41.1655,
      "arg_perigee_deg": 271.8768,
      "mean_anomaly_deg": 98.9936,
      "mean_motion_rev_day": 15.26739487
    },
    {
      "epoch": "2026-03-31T20:00:01.999008Z",
      "apogee_km": 486.2492474677756,
      "perigee_km": 485.00827861781727,
      "latitude_deg": 10.250398049775745,
      "longitude_deg": -82.10041981064718,
      "height_km": 484.90257932105726,
      "semi_major_axis_km": 6863.765763042797,
      "eccentricity": 9.04e-05,
      "inclination_deg": 43.0013,
      "raan_deg": 35.9942,
      "arg_perigee_deg": 261.4581,
      "mean_anomaly_deg": 113.6501,
      "mean_motion_rev_day": 15.26718896
    },
    {
      "epoch": "2026-04-01T13:12:23.436864Z",
      "apogee_km": 486.0303038072916,
      "perigee_km": 485.08723200878194,
      "latitude_deg": 4.872637858767675e-05,
      "longitude_deg": 3.941314130570206,
      "height_km": 485.2724054080266,
      "semi_major_axis_km": 6863.695767908037,
      "eccentricity": 6.87e-05,
      "inclination_deg": 43.0026,
      "raan_deg": 31.9506,
      "arg_perigee_deg": 277.6546,
      "mean_anomaly_deg": 82.4228,
      "mean_motion_rev_day": 15.2674225
    },
    {
      "epoch": "2026-04-02T12:45:30.463776Z",
      "apogee_km": 486.04745415090565,
      "perigee_km": 485.05098418560647,
      "latitude_deg": 2.3254646998917585e-05,
      "longitude_deg": 4.159464798468318,
      "height_km": 485.3802873480131,
      "semi_major_axis_km": 6863.686219168256,
      "eccentricity": 7.259e-05,
      "inclination_deg": 43.0029,
      "raan_deg": 26.4153,
      "arg_perigee_deg": 263.7126,
      "mean_anomaly_deg": 96.3643,
      "mean_motion_rev_day": 15.26745436
    },
    {
      "epoch": "2026-04-03T18:35:15.115200Z",
      "apogee_km": 487.73651101456926,
      "perigee_km": 481.23486228123966,
      "latitude_deg": 1.4073415842512758e-05,
      "longitude_deg": -91.51502869130006,
      "height_km": 484.0493684257648,
      "semi_major_axis_km": 6862.622686647905,
      "eccentricity": 0.0004737,
      "inclination_deg": 43.0024,
      "raan_deg": 19.4019,
      "arg_perigee_deg": 273.7985,
      "mean_anomaly_deg": 86.2325,
      "mean_motion_rev_day": 15.2710036
    },
    {
      "epoch": "2026-04-04T19:42:48.748320Z",
      "apogee_km": 486.5242304394169,
      "perigee_km": 484.62161004952395,
      "latitude_deg": -2.6776212272209456e-05,
      "longitude_deg": -115.33899958014344,
      "height_km": 485.60549077547563,
      "semi_major_axis_km": 6863.70992024447,
      "eccentricity": 0.0001386,
      "inclination_deg": 43.0027,
      "raan_deg": 13.5,
      "arg_perigee_deg": 254.4159,
      "mean_anomaly_deg": 105.6539,
      "mean_motion_rev_day": 15.26737528
    },
    {
      "epoch": "2026-04-05T14:00:03.000384Z",
      "apogee_km": 486.2416752369718,
      "perigee_km": 484.89460446622434,
      "latitude_deg": -33.1915077974274,
      "longitude_deg": -170.46222834451132,
      "height_km": 494.25792799313234,
      "semi_major_axis_km": 6863.705139851598,
      "eccentricity": 9.813e-05,
      "inclination_deg": 43.0017,
      "raan_deg": 9.2024,
      "arg_perigee_deg": 262.8963,
      "mean_anomaly_deg": 330.1347,
      "mean_motion_rev_day": 15.26739123
    },
    {
      "epoch": "2026-04-05T19:16:10.915104Z",
      "apogee_km": 486.93915117541746,
      "perigee_km": 484.73361924728124,
      "latitude_deg": 4.494906402157308e-05,
      "longitude_deg": -115.18270331450051,
      "height_km": 485.8950921429542,
      "semi_major_axis_km": 6863.9733852113495,
      "eccentricity": 0.00016066,
      "inclination_deg": 43.0027,
      "raan_deg": 7.966,
      "arg_perigee_deg": 255.2089,
      "mean_anomaly_deg": 104.8585,
      "mean_motion_rev_day": 15.26649626
    },
    {
      "epoch": "2026-04-07T10:31:06.775968Z",
      "apogee_km": 486.04913719015985,
      "perigee_km": 485.0574712150092,
      "latitude_deg": 2.5230414971575298e-05,
      "longitude_deg": 5.248124937404211,
      "height_km": 485.30354405766144,
      "semi_major_axis_km": 6863.690304202584,
      "eccentricity": 7.224e-05,
      "inclination_deg": 43.0012,
      "raan_deg": 358.7415,
      "arg_perigee_deg": 273.0157,
      "mean_anomaly_deg": 87.0612,
      "mean_motion_rev_day": 15.26744073
    },
    {
      "epoch": "2026-04-08T16:00:01.999584Z",
      "apogee_km": 486.2602187530629,
      "perigee_km": 484.946361586718,
      "latitude_deg": -42.401517055757274,
      "longitude_deg": -161.98427681245974,
      "height_km": 498.07247892209153,
      "semi_major_axis_km": 6863.74029016989,
      "eccentricity": 9.571e-05,
      "inclination_deg": 43.0011,
      "raan_deg": 351.8113,
      "arg_perigee_deg": 249.5555,
      "mean_anomaly_deg": 30.145,
      "mean_motion_rev_day": 15.26727395
    },
    {
      "epoch": "2026-04-09T09:37:21.315360Z",
      "apogee_km": 486.11305302365054,
      "perigee_km": 485.005801516003,
      "latitude_deg": 7.33928653612539e-06,
      "longitude_deg": 5.683125025875612,
      "height_km": 485.3419487934901,
      "semi_major_axis_km": 6863.696427269826,
      "eccentricity": 8.066e-05,
      "inclination_deg": 43.002,
      "raan_deg": 347.6716,
      "arg_perigee_deg": 269.3758,
      "mean_anomaly_deg": 90.7001,
      "mean_motion_rev_day": 15.2674203
    },
    {
      "epoch": "2026-04-10T01:19:26.116896Z",
      "apogee_km": 486.07217506470533,
      "perigee_km": 485.04660155036345,
      "latitude_deg": 1.1744830452101749e-05,
      "longitude_deg": 125.8281905854138,
      "height_km": 485.36330001849285,
      "semi_major_axis_km": 6863.696388307534,
      "eccentricity": 7.471e-05,
      "inclination_deg": 43.0017,
      "raan_deg": 343.9815,
      "arg_perigee_deg": 266.9243,
      "mean_anomaly_deg": 93.1523,
      "mean_motion_rev_day": 15.26742043
    },
    {
      "epoch": "2026-04-11T08:00:01.999008Z",
      "apogee_km": 486.1874739589557,
      "perigee_km": 484.8051382111107,
      "latitude_deg": -9.324256973937361,
      "longitude_deg": -152.7073697432212,
      "height_km": 486.6326688051888,
      "semi_major_axis_km": 6863.633306085033,
      "eccentricity": 0.0001007,
      "inclination_deg": 43.0009,
      "raan_deg": 336.7711,
      "arg_perigee_deg": 256.2394,
      "mean_anomaly_deg": 297.3499,
      "mean_motion_rev_day": 15.26763091
    },
    {
      "epoch": "2026-04-11T08:00:01.999872Z",
      "apogee_km": 486.1877485042878,
      "perigee_km": 484.8048636657777,
      "latitude_deg": -9.324254226824868,
      "longitude_deg": -152.70737640999297,
      "height_km": 486.63254210539816,
      "semi_major_axis_km": 6863.633306085033,
      "eccentricity": 0.00010074,
      "inclination_deg": 43.0009,
      "raan_deg": 336.7711,
      "arg_perigee_deg": 256.2394,
      "mean_anomaly_deg": 297.3499,
      "mean_motion_rev_day": 15.26763091
    },
    {
      "epoch": "2026-04-14T20:00:01.999008Z",
      "apogee_km": 486.18186200966375,
      "perigee_km": 484.90659003786914,
      "latitude_deg": 8.899729936136184,
      "longitude_deg": -176.36835383930983,
      "height_km": 484.9998148259624,
      "semi_major_axis_km": 6863.681226023766,
      "eccentricity": 9.29e-05,
      "inclination_deg": 43.0003,
      "raan_deg": 317.031,
      "arg_perigee_deg": 244.5243,
      "mean_anomaly_deg": 128.584,
      "mean_motion_rev_day": 15.26747102
    }
  ]
}